STARLINK-1876           
1 47161U 20088AR  25324.56750675  .00003018  00000+0  22136-3 0  9992
2 47161  53.0558  61.4842 0000817  89.5778 270.5305 15.06402187275530
STARLINK-1888           
1 47171U 20088BB  25324.71125574  .00009190  00000+0  63486-3 0  9994
2 47171  53.0543  60.8429 0001075  94.0822 266.0290 15.06410624275557
STARLINK-1912           
1 47178U 20088BJ  25324.67717411  .00014084  00000+0  96304-3 0  9996
2 47178  53.0538  70.9911 0001254  99.0174 261.0957 15.06379221275406
STARLINK-1913           
1 47179U 20088BK  25324.73154624  .00001272  00000+0  10431-3 0  9997
2 47179  53.0563  80.7509 0001976  84.1717 275.9497 15.06389207275279
STARLINK-2017           
1 47351U 21005C   25324.90475301  .00001660  00000+0  13033-3 0  9998
2 47351  53.0515 149.9640 0001471  96.7334 263.3823 15.06399402267202
STARLINK-2034           
1 47352U 21005D   25324.99049308  .00004551  00000+0  32431-3 0  9997
2 47352  53.0531 189.5900 0001744  86.3470 273.7718 15.06393380266654
STARLINK-2045           
1 47353U 21005E   25324.87944759  .00004132  00000+0  29620-3 0  9990
2 47353  53.0528 135.0837 0001394  75.4518 284.6625 15.06393473267415
STARLINK-2046           
1 47354U 21005F   25324.94402448 -.00001104  00000+0 -55276-4 0  9998
2 47354  53.0539 155.3388 0001408  88.7651 271.3499 15.06383887267134
STARLINK-2047           
1 47355U 21005G   25324.91398288 -.00001755  00000+0 -98910-4 0  9996
2 47355  53.0488 139.9307 0002769  94.4630 265.6675 15.06392179267348
STARLINK-2049           
1 47356U 21005H   25324.56198972  .00001533  00000+0  12181-3 0  9993
2 47356  53.0534 161.5125 0001422  91.6906 268.4246 15.06394498267015
STARLINK-2050           
1 47357U 21005J   25325.07529402 -.00006507  00000+0 -41844-3 0  9993
2 47357  53.0523 189.6334 0001290  89.7022 270.4114 15.06390905266663
STARLINK-2055           
1 47358U 21005K   25323.97497917  .00001472  00000+0  11767-3 0  9991
2 47358  53.0515 164.1380 0001449  82.8159 277.2995 15.06396477266926
STARLINK-2069           
1 47359U 21005L   25325.16668980  .00254820  00000+0  17904-2 0  9990
2 47359  53.0124  90.0891 0004481 311.1423  56.2548 15.72860059  5901
STARLINK-2071           
1 47361U 21005N   25324.97850208  .00000946  00000+0  82392-4 0  9990
2 47361  53.0531 159.6407 0001685  94.6871 265.4310 15.06392485267073
STARLINK-2076           
1 47362U 21005P   25325.02365760  .00003604  00000+0  26073-3 0  9999
2 47362  53.0530 189.4380 0001586  97.1455 262.9714 15.06400872266664
STARLINK-2081           
1 47366U 21005T   25324.98679713 -.00000199  00000+0  55531-5 0  9993
2 47366  53.0532 189.6050 0001334  91.6613 268.4529 15.06396200266655
STARLINK-2082           
1 47367U 21005U   25325.01260317  .00003380  00000+0  24571-3 0  9997
2 47367  53.0532 189.4893 0001280  92.1780 267.9356 15.06394107266667
