[{"OBJECT_NAME":"STARLINK-1876","OBJECT_ID":"2020-088AR","EPOCH":"2025-11-20T13:37:12.583200","MEAN_MOTION":15.06402187,"ECCENTRICITY":8.17e-5,"INCLINATION":53.0558,"RA_OF_ASC_NODE":61.4842,"ARG_OF_PERICENTER":89.5778,"MEAN_ANOMALY":270.5305,"EPHEMERIS_TYPE":0,"CLASSIFICATION_TYPE":"U","NORAD_CAT_ID":47161,"ELEMENT_SET_NO":999,"REV_AT_EPOCH":27553,"BSTAR":0.00022135795,"MEAN_MOTION_DOT":3.018e-5,"MEAN_MOTION_DDOT":0},{"OBJECT_NAME":"STARLINK-1888","OBJECT_ID":"2020-088BB","EPOCH":"2025-11-20T17:04:12.495936","MEAN_MOTION":15.06410624,"ECCENTRICITY":0.00010756,"INCLINATION":53.0543,"RA_OF_ASC_NODE":60.8429,"ARG_OF_PERICENTER":94.0822,"MEAN_ANOMALY":266.029,"EPHEMERIS_TYPE":0,"CLASSIFICATION_TYPE":"U","NORAD_CAT_ID":47171,"ELEMENT_SET_NO":999,"REV_AT_EPOCH":27555,"BSTAR":0.00063485847,"MEAN_MOTION_DOT":9.19e-5,"MEAN_MOTION_DDOT":0},{"OBJECT_NAME":"STARLINK-1912","OBJECT_ID":"2020-088BJ","EPOCH":"2025-11-20T16:15:07.843104","MEAN_MOTION":15.06379221,"ECCENTRICITY":0.00012549,"INCLINATION":53.0538,"RA_OF_ASC_NODE":70.9911,"ARG_OF_PERICENTER":99.0174,"MEAN_ANOMALY":261.0957,"EPHEMERIS_TYPE":0,"CLASSIFICATION_TYPE":"U","NORAD_CAT_ID":47178,"ELEMENT_SET_NO":999,"REV_AT_EPOCH":27540,"BSTAR":0.0009630414,"MEAN_MOTION_DOT":0.00014084,"MEAN_MOTION_DDOT":0},{"OBJECT_NAME":"STARLINK-1913","OBJECT_ID":"2020-088BK","EPOCH":"2025-11-20T17:33:25.595136","MEAN_MOTION":15.06389207,"ECCENTRICITY":0.00019766,"INCLINATION":53.0563,"RA_OF_ASC_NODE":80.7509,"ARG_OF_PERICENTER":84.1717,"MEAN_ANOMALY":275.9497,"EPHEMERIS_TYPE":0,"CLASSIFICATION_TYPE":"U","NORAD_CAT_ID":47179,"ELEMENT_SET_NO":999,"REV_AT_EPOCH":27527,"BSTAR":0.00010431378,"MEAN_MOTION_DOT":1.272e-5,"MEAN_MOTION_DDOT":0},{"OBJECT_NAME":"STARLINK-2017","OBJECT_ID":"2021-005C","EPOCH":"2025-11-20T21:42:50.660064","MEAN_MOTION":15.06399402,"ECCENTRICITY":0.0001471,"INCLINATION":53.0515,"RA_OF_ASC_NODE":149.964,"ARG_OF_PERICENTER":96.7334,"MEAN_ANOMALY":263.3823,"EPHEMERIS_TYPE":0,"CLASSIFICATION_TYPE":"U","NORAD_CAT_ID":47351,"ELEMENT_SET_NO":999,"REV_AT_EPOCH":26720,"BSTAR":0.00013033,"MEAN_MOTION_DOT":1.66e-5,"MEAN_MOTION_DDOT":0},{"OBJECT_NAME":"STARLINK-2034","OBJECT_ID":"2021-005D","EPOCH":"2025-11-20T23:46:18.602112","MEAN_MOTION":15.0639338,"ECCENTRICITY":0.0001744,"INCLINATION":53.0531,"RA_OF_ASC_NODE":189.59,"ARG_OF_PERICENTER":86.347,"MEAN_ANOMALY":273.7718,"EPHEMERIS_TYPE":0,"CLASSIFICATION_TYPE":"U","NORAD_CAT_ID":47352,"ELEMENT_SET_NO":999,"REV_AT_EPOCH":26665,"BSTAR":0.00032431,"MEAN_MOTION_DOT":4.551e-5,"MEAN_MOTION_DDOT":0},{"OBJECT_NAME":"STARLINK-2045","OBJECT_ID":"2021-005E","EPOCH":"2025-11-20T21:06:24.271776","MEAN_MOTION":15.06393473,"ECCENTRICITY":0.0001394,"INCLINATION":53.0528,"RA_OF_ASC_NODE":135.0837,"ARG_OF_PERICENTER":75.4518,"MEAN_ANOMALY":284.6625,"EPHEMERIS_TYPE":0,"CLASSIFICATION_TYPE":"U","NORAD_CAT_ID":47353,"ELEMENT_SET_NO":999,"REV_AT_EPOCH":26741,"BSTAR":0.0002962,"MEAN_MOTION_DOT":4.132e-5,"MEAN_MOTION_DDOT":0},{"OBJECT_NAME":"STARLINK-2046","OBJECT_ID":"2021-005F","EPOCH":"2025-11-20T22:39:23.715072","MEAN_MOTION":15.06383887,"ECCENTRICITY":0.0001408,"INCLINATION":53.0539,"RA_OF_ASC_NODE":155.3388,"ARG_OF_PERICENTER":88.7651,"MEAN_ANOMALY":271.3499,"EPHEMERIS_TYPE":0,"CLASSIFICATION_TYPE":"U","NORAD_CAT_ID":47354,"ELEMENT_SET_NO":999,"REV_AT_EPOCH":26713,"BSTAR":-5.5276e-5,"MEAN_MOTION_DOT":-1.104e-5,"MEAN_MOTION_DDOT":0},{"OBJECT_NAME":"STARLINK-2047","OBJECT_ID":"2021-005G","EPOCH":"2025-11-20T21:56:08.120832","MEAN_MOTION":15.06392179,"ECCENTRICITY":0.0002769,"INCLINATION":53.0488,"RA_OF_ASC_NODE":139.9307,"ARG_OF_PERICENTER":94.463,"MEAN_ANOMALY":265.6675,"EPHEMERIS_TYPE":0,"CLASSIFICATION_TYPE":"U","NORAD_CAT_ID":47355,"ELEMENT_SET_NO":999,"REV_AT_EPOCH":26734,"BSTAR":-9.891e-5,"MEAN_MOTION_DOT":-1.755e-5,"MEAN_MOTION_DDOT":0},{"OBJECT_NAME":"STARLINK-2049","OBJECT_ID":"2021-005H","EPOCH":"2025-11-20T13:29:15.911808","MEAN_MOTION":15.06394498,"ECCENTRICITY":0.00014229,"INCLINATION":53.0534,"RA_OF_ASC_NODE":161.5125,"ARG_OF_PERICENTER":91.6906,"MEAN_ANOMALY":268.4246,"EPHEMERIS_TYPE":0,"CLASSIFICATION_TYPE":"U","NORAD_CAT_ID":47356,"ELEMENT_SET_NO":999,"REV_AT_EPOCH":26701,"BSTAR":0.0001218091,"MEAN_MOTION_DOT":1.533e-5,"MEAN_MOTION_DDOT":0},{"OBJECT_NAME":"STARLINK-2050","OBJECT_ID":"2021-005J","EPOCH":"2025-11-21T01:48:25.403328","MEAN_MOTION":15.06390905,"ECCENTRICITY":0.000129,"INCLINATION":53.0523,"RA_OF_ASC_NODE":189.6334,"ARG_OF_PERICENTER":89.7022,"MEAN_ANOMALY":270.4114,"EPHEMERIS_TYPE":0,"CLASSIFICATION_TYPE":"U","NORAD_CAT_ID":47357,"ELEMENT_SET_NO":999,"REV_AT_EPOCH":26666,"BSTAR":-0.00041844,"MEAN_MOTION_DOT":-6.507e-5,"MEAN_MOTION_DDOT":0},{"OBJECT_NAME":"STARLINK-2055","OBJECT_ID":"2021-005K","EPOCH":"2025-11-19T23:23:58.200288","MEAN_MOTION":15.06396477,"ECCENTRICITY":0.00014495,"INCLINATION":53.0515,"RA_OF_ASC_NODE":164.138,"ARG_OF_PERICENTER":82.8159,"MEAN_ANOMALY":277.2995,"EPHEMERIS_TYPE":0,"CLASSIFICATION_TYPE":"U","NORAD_CAT_ID":47358,"ELEMENT_SET_NO":999,"REV_AT_EPOCH":26692,"BSTAR":0.00011767429,"MEAN_MOTION_DOT":1.472e-5,"MEAN_MOTION_DDOT":0},{"OBJECT_NAME":"STARLINK-2069","OBJECT_ID":"2021-005L","EPOCH":"2025-11-21T04:00:01.998720","MEAN_MOTION":15.72860059,"ECCENTRICITY":0.0004481,"INCLINATION":53.0124,"RA_OF_ASC_NODE":90.0891,"ARG_OF_PERICENTER":311.1423,"MEAN_ANOMALY":56.2548,"EPHEMERIS_TYPE":0,"CLASSIFICATION_TYPE":"U","NORAD_CAT_ID":47359,"ELEMENT_SET_NO":999,"REV_AT_EPOCH":590,"BSTAR":0.0017904,"MEAN_MOTION_DOT":0.0025482,"MEAN_MOTION_DDOT":0},{"OBJECT_NAME":"STARLINK-2071","OBJECT_ID":"2021-005N","EPOCH":"2025-11-20T23:29:02.579712","MEAN_MOTION":15.06392485,"ECCENTRICITY":0.0001685,"INCLINATION":53.0531,"RA_OF_ASC_NODE":159.6407,"ARG_OF_PERICENTER":94.6871,"MEAN_ANOMALY":265.431,"EPHEMERIS_TYPE":0,"CLASSIFICATION_TYPE":"U","NORAD_CAT_ID":47361,"ELEMENT_SET_NO":999,"REV_AT_EPOCH":26707,"BSTAR":8.2392e-5,"MEAN_MOTION_DOT":9.46e-6,"MEAN_MOTION_DDOT":0},{"OBJECT_NAME":"STARLINK-2076","OBJECT_ID":"2021-005P","EPOCH":"2025-11-21T00:34:04.016640","MEAN_MOTION":15.06400872,"ECCENTRICITY":0.0001586,"INCLINATION":53.053,"RA_OF_ASC_NODE":189.438,"ARG_OF_PERICENTER":97.1455,"MEAN_ANOMALY":262.9714,"EPHEMERIS_TYPE":0,"CLASSIFICATION_TYPE":"U","NORAD_CAT_ID":47362,"ELEMENT_SET_NO":999,"REV_AT_EPOCH":26666,"BSTAR":0.00026073,"MEAN_MOTION_DOT":3.604e-5,"MEAN_MOTION_DDOT":0},{"OBJECT_NAME":"STARLINK-2081","OBJECT_ID":"2021-005T","EPOCH":"2025-11-20T23:40:59.272032","MEAN_MOTION":15.063962,"ECCENTRICITY":0.0001334,"INCLINATION":53.0532,"RA_OF_ASC_NODE":189.605,"ARG_OF_PERICENTER":91.6613,"MEAN_ANOMALY":268.4529,"EPHEMERIS_TYPE":0,"CLASSIFICATION_TYPE":"U","NORAD_CAT_ID":47366,"ELEMENT_SET_NO":999,"REV_AT_EPOCH":26665,"BSTAR":5.5531e-6,"MEAN_MOTION_DOT":-1.99e-6,"MEAN_MOTION_DDOT":0},{"OBJECT_NAME":"STARLINK-2082","OBJECT_ID":"2021-005U","EPOCH":"2025-11-21T00:18:08.913888","MEAN_MOTION":15.06394107,"ECCENTRICITY":0.000128,"INCLINATION":53.0532,"RA_OF_ASC_NODE":189.4893,"ARG_OF_PERICENTER":92.178,"MEAN_ANOMALY":267.9356,"EPHEMERIS_TYPE":0,"CLASSIFICATION_TYPE":"U","NORAD_CAT_ID":47367,"ELEMENT_SET_NO":999,"REV_AT_EPOCH":26666,"BSTAR":0.00024571,"MEAN_MOTION_DOT":3.38e-5,"MEAN_MOTION_DDOT":0}]
